IRIDIUM 126             
1 42809U 17039G   25144.46822875  .00000057  00000+0  13446-4 0  9994
2 42809  86.3978 156.1301 0002277  96.7671 263.3783 14.34217779414238
IRIDIUM 124             
1 42810U 17039H   25144.38369834  .00000269  00000+0  74000-4 0  9996
2 42810  86.4472  92.9214 0002715  85.2634 274.8877 14.43274325419033
IRIDIUM 128             
1 42811U 17039J   25144.52873678  .00000078  00000+0  20816-4 0  9993
2 42811  86.4006 187.5697 0002757  89.9434 270.2078 14.34217981414277
IRIDIUM 121             
1 42812U 17039K   25144.48725339  .00000060  00000+0  14346-4 0  9991
2 42812  86.3980 156.1471 0002373  87.1819 272.9648 14.34217434414119
IRIDIUM 133             
1 42955U 17061A   25144.63021751 -.00000049  00000+0 -24567-4 0  9993
2 42955  86.4012 187.6351 0002271  94.7864 265.3591 14.34217189399089
IRIDIUM 100             
1 42956U 17061B   25144.55411138  .00000158  00000+0  49196-4 0  9991
2 42956  86.4006 187.5950 0002504  97.0488 263.0992 14.34214064399072
IRIDIUM 122             
1 42957U 17061C   25144.52239379  .00000000  00000+0 -69914-5 0  9992
2 42957  86.4011 187.6072 0002304  95.8278 264.3180 14.34217371399073
IRIDIUM 129             
1 42958U 17061D   25144.47799403  .00000104  00000+0  30101-4 0  9995
2 42958  86.4007 187.6886 0001909  94.4701 265.6713 14.34217868399086
